[{"OBJECT_NAME":"MINXSS-2","OBJECT_ID":"2018-099A","EPOCH":"2026-03-07T04:23:08.944224","MEAN_MOTION":15.40111277,"ECCENTRICITY":0.0007523,"INCLINATION":97.4631,"RA_OF_ASC_NODE":139.9613,"ARG_OF_PERICENTER":270.1679,"MEAN_ANOMALY":89.8705,"EPHEMERIS_TYPE":0,"CLASSIFICATION_TYPE":"U","NORAD_CAT_ID":43758,"ELEMENT_SET_NO":999,"REV_AT_EPOCH":39839,"BSTAR":0.00093163,"MEAN_MOTION_DOT":0.00037389,"MEAN_MOTION_DDOT":0},{"OBJECT_NAME":"SIRION PATHFINDER-2","OBJECT_ID":"2018-099B","EPOCH":"2026-03-07T01:45:24.404832","MEAN_MOTION":15.13498667,"ECCENTRICITY":0.0007407,"INCLINATION":97.4393,"RA_OF_ASC_NODE":117.5615,"ARG_OF_PERICENTER":297.53,"MEAN_ANOMALY":62.5178,"EPHEMERIS_TYPE":0,"CLASSIFICATION_TYPE":"U","NORAD_CAT_ID":43759,"ELEMENT_SET_NO":999,"REV_AT_EPOCH":39717,"BSTAR":0.00036436,"MEAN_MOTION_DOT":6.463e-5,"MEAN_MOTION_DDOT":0},{"OBJECT_NAME":"AISTECHSAT 2","OBJECT_ID":"2018-099L","EPOCH":"2026-03-07T02:29:05.748864","MEAN_MOTION":15.14292727,"ECCENTRICITY":0.0003324,"INCLINATION":97.4432,"RA_OF_ASC_NODE":116.3817,"ARG_OF_PERICENTER":301.2509,"MEAN_ANOMALY":58.8397,"EPHEMERIS_TYPE":0,"CLASSIFICATION_TYPE":"U","NORAD_CAT_ID":43768,"ELEMENT_SET_NO":999,"REV_AT_EPOCH":39682,"BSTAR":0.0003635,"MEAN_MOTION_DOT":6.591e-5,"MEAN_MOTION_DDOT":0},{"OBJECT_NAME":"FOX-1CLIFF (AO-95)","OBJECT_ID":"2018-099N","EPOCH":"2026-03-07T03:34:15.391200","MEAN_MOTION":15.24326342,"ECCENTRICITY":0.0008559,"INCLINATION":97.4509,"RA_OF_ASC_NODE":126.8847,"ARG_OF_PERICENTER":356.7008,"MEAN_ANOMALY":3.4171,"EPHEMERIS_TYPE":0,"CLASSIFICATION_TYPE":"U","NORAD_CAT_ID":43770,"ELEMENT_SET_NO":999,"REV_AT_EPOCH":39766,"BSTAR":0.00056148,"MEAN_MOTION_DOT":0.00013687,"MEAN_MOTION_DDOT":0},{"OBJECT_NAME":"2018-099Q","OBJECT_ID":"2018-099Q","EPOCH":"2026-03-07T04:50:40.279776","MEAN_MOTION":15.57019649,"ECCENTRICITY":0.0003021,"INCLINATION":97.4298,"RA_OF_ASC_NODE":141.4892,"ARG_OF_PERICENTER":213.1815,"MEAN_ANOMALY":146.9251,"EPHEMERIS_TYPE":0,"CLASSIFICATION_TYPE":"U","NORAD_CAT_ID":43772,"ELEMENT_SET_NO":999,"REV_AT_EPOCH":39866,"BSTAR":0.0013106,"MEAN_MOTION_DOT":0.00095537,"MEAN_MOTION_DDOT":0},{"OBJECT_NAME":"RANGE-A","OBJECT_ID":"2018-099R","EPOCH":"2026-03-07T01:25:40.400832","MEAN_MOTION":15.12419991,"ECCENTRICITY":0.000997,"INCLINATION":97.4108,"RA_OF_ASC_NODE":111.6228,"ARG_OF_PERICENTER":349.6655,"MEAN_ANOMALY":10.4369,"EPHEMERIS_TYPE":0,"CLASSIFICATION_TYPE":"U","NORAD_CAT_ID":43773,"ELEMENT_SET_NO":999,"REV_AT_EPOCH":39705,"BSTAR":0.00035166,"MEAN_MOTION_DOT":6.053e-5,"MEAN_MOTION_DDOT":0},{"OBJECT_NAME":"SNUSAT-2","OBJECT_ID":"2018-099AA","EPOCH":"2026-03-07T02:23:27.236256","MEAN_MOTION":15.20102665,"ECCENTRICITY":0.0009179,"INCLINATION":97.4198,"RA_OF_ASC_NODE":121.1072,"ARG_OF_PERICENTER":296.0269,"MEAN_ANOMALY":64.0021,"EPHEMERIS_TYPE":0,"CLASSIFICATION_TYPE":"U","NORAD_CAT_ID":43782,"ELEMENT_SET_NO":999,"REV_AT_EPOCH":39751,"BSTAR":0.00050263,"MEAN_MOTION_DOT":0.00010809,"MEAN_MOTION_DDOT":0},{"OBJECT_NAME":"SNUGLITE","OBJECT_ID":"2018-099AC","EPOCH":"2026-03-07T02:43:37.778016","MEAN_MOTION":15.24743943,"ECCENTRICITY":0.000139,"INCLINATION":97.4007,"RA_OF_ASC_NODE":121.5048,"ARG_OF_PERICENTER":297.6847,"MEAN_ANOMALY":62.4249,"EPHEMERIS_TYPE":0,"CLASSIFICATION_TYPE":"U","NORAD_CAT_ID":43784,"ELEMENT_SET_NO":999,"REV_AT_EPOCH":39775,"BSTAR":0.00058322,"MEAN_MOTION_DOT":0.00014386,"MEAN_MOTION_DDOT":0},{"OBJECT_NAME":"ITASAT","OBJECT_ID":"2018-099AE","EPOCH":"2026-03-07T03:17:36.073248","MEAN_MOTION":15.17621645,"ECCENTRICITY":0.0012463,"INCLINATION":97.4167,"RA_OF_ASC_NODE":119.7175,"ARG_OF_PERICENTER":355.9166,"MEAN_ANOMALY":4.1964,"EPHEMERIS_TYPE":0,"CLASSIFICATION_TYPE":"U","NORAD_CAT_ID":43786,"ELEMENT_SET_NO":999,"REV_AT_EPOCH":39742,"BSTAR":0.00040912,"MEAN_MOTION_DOT":8.181e-5,"MEAN_MOTION_DDOT":0},{"OBJECT_NAME":"EAGLET-I","OBJECT_ID":"2018-099AJ","EPOCH":"2026-03-07T02:32:32.083296","MEAN_MOTION":15.12072494,"ECCENTRICITY":0.0010778,"INCLINATION":97.437,"RA_OF_ASC_NODE":118.4683,"ARG_OF_PERICENTER":346.1433,"MEAN_ANOMALY":13.95,"EPHEMERIS_TYPE":0,"CLASSIFICATION_TYPE":"U","NORAD_CAT_ID":43790,"ELEMENT_SET_NO":999,"REV_AT_EPOCH":39690,"BSTAR":0.00029278,"MEAN_MOTION_DOT":4.98e-5,"MEAN_MOTION_DDOT":0},{"OBJECT_NAME":"ESEO","OBJECT_ID":"2018-099AL","EPOCH":"2026-03-07T01:27:00.210240","MEAN_MOTION":15.03897554,"ECCENTRICITY":0.001135,"INCLINATION":97.4108,"RA_OF_ASC_NODE":107.7729,"ARG_OF_PERICENTER":326.611,"MEAN_ANOMALY":33.4399,"EPHEMERIS_TYPE":0,"CLASSIFICATION_TYPE":"U","NORAD_CAT_ID":43792,"ELEMENT_SET_NO":999,"REV_AT_EPOCH":39645,"BSTAR":0.00021384,"MEAN_MOTION_DOT":2.892e-5,"MEAN_MOTION_DDOT":0},{"OBJECT_NAME":"THEA","OBJECT_ID":"2018-099AQ","EPOCH":"2026-03-07T03:07:02.718048","MEAN_MOTION":15.31309599,"ECCENTRICITY":0.0006623,"INCLINATION":97.4548,"RA_OF_ASC_NODE":135.0559,"ARG_OF_PERICENTER":287.5269,"MEAN_ANOMALY":72.5248,"EPHEMERIS_TYPE":0,"CLASSIFICATION_TYPE":"U","NORAD_CAT_ID":43796,"ELEMENT_SET_NO":999,"REV_AT_EPOCH":39705,"BSTAR":0.00071607,"MEAN_MOTION_DOT":0.00021627,"MEAN_MOTION_DDOT":0},{"OBJECT_NAME":"ASTROCAST 0.1","OBJECT_ID":"2018-099AS","EPOCH":"2026-03-07T00:13:34.161024","MEAN_MOTION":15.42772213,"ECCENTRICITY":0.0005441,"INCLINATION":97.4463,"RA_OF_ASC_NODE":141.8067,"ARG_OF_PERICENTER":218.5047,"MEAN_ANOMALY":141.5813,"EPHEMERIS_TYPE":0,"CLASSIFICATION_TYPE":"U","NORAD_CAT_ID":43798,"ELEMENT_SET_NO":999,"REV_AT_EPOCH":39864,"BSTAR":0.00083876,"MEAN_MOTION_DOT":0.00036739,"MEAN_MOTION_DDOT":0},{"OBJECT_NAME":"JY1SAT (JO-97)","OBJECT_ID":"2018-099AX","EPOCH":"2026-03-07T03:15:57.837312","MEAN_MOTION":15.30176025,"ECCENTRICITY":0.0004717,"INCLINATION":97.4254,"RA_OF_ASC_NODE":128.8127,"ARG_OF_PERICENTER":269.3356,"MEAN_ANOMALY":90.7344,"EPHEMERIS_TYPE":0,"CLASSIFICATION_TYPE":"U","NORAD_CAT_ID":43803,"ELEMENT_SET_NO":999,"REV_AT_EPOCH":39800,"BSTAR":0.0007036,"MEAN_MOTION_DOT":0.00020506,"MEAN_MOTION_DDOT":0},{"OBJECT_NAME":"SUOMI-100","OBJECT_ID":"2018-099AY","EPOCH":"2026-03-07T03:00:25.123392","MEAN_MOTION":15.25902649,"ECCENTRICITY":0.0008958,"INCLINATION":97.4318,"RA_OF_ASC_NODE":127.0174,"ARG_OF_PERICENTER":280.4047,"MEAN_ANOMALY":79.6181,"EPHEMERIS_TYPE":0,"CLASSIFICATION_TYPE":"U","NORAD_CAT_ID":43804,"ELEMENT_SET_NO":999,"REV_AT_EPOCH":39784,"BSTAR":0.00055114,"MEAN_MOTION_DOT":0.00014085,"MEAN_MOTION_DDOT":0},{"OBJECT_NAME":"AL-FARABI 2","OBJECT_ID":"2018-099AZ","EPOCH":"2026-03-07T04:33:40.663008","MEAN_MOTION":15.67168539,"ECCENTRICITY":0.0004595,"INCLINATION":97.4111,"RA_OF_ASC_NODE":141.8881,"ARG_OF_PERICENTER":221.6833,"MEAN_ANOMALY":138.4078,"EPHEMERIS_TYPE":0,"CLASSIFICATION_TYPE":"U","NORAD_CAT_ID":43805,"ELEMENT_SET_NO":999,"REV_AT_EPOCH":39896,"BSTAR":0.001523,"MEAN_MOTION_DOT":0.00165751,"MEAN_MOTION_DDOT":0},{"OBJECT_NAME":"CENTAURI-1","OBJECT_ID":"2018-099BD","EPOCH":"2026-03-07T02:00:43.293024","MEAN_MOTION":15.15204319,"ECCENTRICITY":0.0013412,"INCLINATION":97.4361,"RA_OF_ASC_NODE":120.0082,"ARG_OF_PERICENTER":327.8243,"MEAN_ANOMALY":32.217,"EPHEMERIS_TYPE":0,"CLASSIFICATION_TYPE":"U","NORAD_CAT_ID":43809,"ELEMENT_SET_NO":999,"REV_AT_EPOCH":39703,"BSTAR":0.00038584,"MEAN_MOTION_DOT":7.197e-5,"MEAN_MOTION_DDOT":0}]
