MINXSS-2                
1 43758U 18099A   26066.18274241  .00037389  00000+0  93163-3 0  9997
2 43758  97.4631 139.9613 0007523 270.1679  89.8705 15.40111277398398
SIRION PATHFINDER-2     
1 43759U 18099B   26066.07319913  .00006463  00000+0  36436-3 0  9991
2 43759  97.4393 117.5615 0007407 297.5300  62.5178 15.13498667397171
AISTECHSAT 2            
1 43768U 18099L   26066.10353876  .00006591  00000+0  36350-3 0  9998
2 43768  97.4432 116.3817 0003324 301.2509  58.8397 15.14292727396826
FOX-1CLIFF (AO-95)      
1 43770U 18099N   26066.14878925  .00013687  00000+0  56148-3 0  9993
2 43770  97.4509 126.8847 0008559 356.7008   3.4171 15.24326342397668
2018-099Q               
1 43772U 18099Q   26066.20185509  .00095537  00000+0  13106-2 0  9991
2 43772  97.4298 141.4892 0003021 213.1815 146.9251 15.57019649398667
RANGE-A                 
1 43773U 18099R   26066.05949538  .00006053  00000+0  35166-3 0  9991
2 43773  97.4108 111.6228 0009970 349.6655  10.4369 15.12419991397058
SNUSAT-2                
1 43782U 18099AA  26066.09962079  .00010809  00000+0  50263-3 0  9999
2 43782  97.4198 121.1072 0009179 296.0269  64.0021 15.20102665397514
SNUGLITE                
1 43784U 18099AC  26066.11363169  .00014386  00000+0  58322-3 0  9997
2 43784  97.4007 121.5048 0001390 297.6847  62.4249 15.24743943397752
ITASAT                  
1 43786U 18099AE  26066.13722307  .00008181  00000+0  40912-3 0  9996
2 43786  97.4167 119.7175 0012463 355.9166   4.1964 15.17621645397423
EAGLET-I                
1 43790U 18099AJ  26066.10592689  .00004980  00000+0  29278-3 0  9991
2 43790  97.4370 118.4683 0010778 346.1433  13.9500 15.12072494396903
ESEO                    
1 43792U 18099AL  26066.06041910  .00002892  00000+0  21384-3 0  9994
2 43792  97.4108 107.7729 0011350 326.6110  33.4399 15.03897554396453
THEA                    
1 43796U 18099AQ  26066.12989257  .00021627  00000+0  71607-3 0  9990
2 43796  97.4548 135.0559 0006623 287.5269  72.5248 15.31309599397059
ASTROCAST 0.1           
1 43798U 18099AS  26066.00942316  .00036739  00000+0  83876-3 0  9995
2 43798  97.4463 141.8067 0005441 218.5047 141.5813 15.42772213398641
JY1SAT (JO-97)          
1 43803U 18099AX  26066.13608608  .00020506  00000+0  70360-3 0  9998
2 43803  97.4254 128.8127 0004717 269.3356  90.7344 15.30176025398000
SUOMI-100               
1 43804U 18099AY  26066.12529078  .00014085  00000+0  55114-3 0  9996
2 43804  97.4318 127.0174 0008958 280.4047  79.6181 15.25902649397846
AL-FARABI 2             
1 43805U 18099AZ  26066.19005397  .00165751  00000+0  15230-2 0  9998
2 43805  97.4111 141.8881 0004595 221.6833 138.4078 15.67168539398961
CENTAURI-1              
1 43809U 18099BD  26066.08383441  .00007197  00000+0  38584-3 0  9996
2 43809  97.4361 120.0082 0013412 327.8243  32.2170 15.15204319397037
